start=new Date('2023-06-13T00:00:00.000Z').valueOf();
sats=[{"RCS_SIZE":"LARGE","EPHEMERIS_TYPE":"0","LAUNCH_DATE":"2021-04-07","BSTAR":"0.00135550000000","SEMIMAJOR_AXIS":"6925.358","REV_AT_EPOCH":"12183","OBJECT_NAME":"STARLINK-2503","COUNTRY_CODE":"US","DECAY_DATE":null,"APOAPSIS":"548.119","NORAD_CAT_ID":"48151","MEAN_MOTION_DOT":"0.00019965","PERIAPSIS":"546.327","CENTER_NAME":"EARTH","MEAN_ANOMALY":"279.7375","TLE_LINE2":"2 48151  53.0542 325.1314 0001294  80.3760 279.7375 15.06396985121836","RA_OF_ASC_NODE":"325.1314","ARG_OF_PERICENTER":"80.3760","SITE":"AFETR","CLASSIFICATION_TYPE":"U","FILE":"3931605","ECCENTRICITY":"0.00012940","PERIOD":"95.592","TLE_LINE1":"1 48151U 21027BM  23163.72318556  .00019965  00000-0  13555-2 0  9994","TIME_SYSTEM":"UTC","REF_FRAME":"TEME","MEAN_MOTION":"15.06396985","OBJECT_TYPE":"PAYLOAD","EPOCH":"2023-06-12T17:21:23.232384","MEAN_ELEMENT_THEORY":"SGP4","OBJECT_ID":"2021-027BM","MEAN_MOTION_DDOT":"0.0000000000000","INCLINATION":"53.0542","GP_ID":"233800148","ELEMENT_SET_NO":"999"},{"PERIAPSIS":"546.677","CENTER_NAME":"EARTH","MEAN_MOTION_DOT":"0.00002108","ARG_OF_PERICENTER":"96.9781","MEAN_ANOMALY":"263.1297","RA_OF_ASC_NODE":"221.4331","TLE_LINE2":"2 48276  53.0522 221.4331 0000782  96.9781 263.1297 15.06398391118475","SEMIMAJOR_AXIS":"6925.353","OBJECT_NAME":"STARLINK-2567","REV_AT_EPOCH":"11847","EPHEMERIS_TYPE":"0","LAUNCH_DATE":"2021-04-29","RCS_SIZE":"LARGE","BSTAR":"0.00016038000000","DECAY_DATE":null,"APOAPSIS":"547.760","COUNTRY_CODE":"US","NORAD_CAT_ID":"48276","MEAN_ELEMENT_THEORY":"SGP4","EPOCH":"2023-06-12T10:22:43.734432","INCLINATION":"53.0522","OBJECT_ID":"2021-036A","MEAN_MOTION_DDOT":"0.0000000000000","OBJECT_TYPE":"PAYLOAD","ELEMENT_SET_NO":"999","GP_ID":"233771160","TLE_LINE1":"1 48276U 21036A   23163.43245063  .00002108  00000-0  16038-3 0  9993","PERIOD":"95.592","SITE":"AFETR","ECCENTRICITY":"0.00007820","FILE":"3931301","CLASSIFICATION_TYPE":"U","MEAN_MOTION":"15.06398391","TIME_SYSTEM":"UTC","REF_FRAME":"TEME"},{"CLASSIFICATION_TYPE":"U","ECCENTRICITY":"0.00011900","FILE":"3931605","SITE":"AFETR","TLE_LINE1":"1 48277U 21036B   23163.76556896  .00002206  00000-0  16697-3 0  9999","PERIOD":"95.592","REF_FRAME":"TEME","TIME_SYSTEM":"UTC","MEAN_MOTION":"15.06399977","OBJECT_TYPE":"PAYLOAD","OBJECT_ID":"2021-036B","MEAN_MOTION_DDOT":"0.0000000000000","INCLINATION":"53.0528","EPOCH":"2023-06-12T18:22:25.158144","MEAN_ELEMENT_THEORY":"SGP4","GP_ID":"233800415","ELEMENT_SET_NO":"999","BSTAR":"0.00016697000000","RCS_SIZE":"LARGE","EPHEMERIS_TYPE":"0","LAUNCH_DATE":"2021-04-29","OBJECT_NAME":"STARLINK-2569","REV_AT_EPOCH":"11843","SEMIMAJOR_AXIS":"6925.349","NORAD_CAT_ID":"48277","COUNTRY_CODE":"US","APOAPSIS":"548.038","DECAY_DATE":null,"MEAN_MOTION_DOT":"0.00002206","CENTER_NAME":"EARTH","PERIAPSIS":"546.390","TLE_LINE2":"2 48277  53.0528 184.9401 0001190  76.6664 283.4457 15.06399977118432","RA_OF_ASC_NODE":"184.9401","MEAN_ANOMALY":"283.4457","ARG_OF_PERICENTER":"76.6664"},{"PERIAPSIS":"546.513","CENTER_NAME":"EARTH","MEAN_MOTION_DOT":"0.00002321","ARG_OF_PERICENTER":"63.4727","MEAN_ANOMALY":"296.6364","TLE_LINE2":"2 48278  53.0525 199.2602 0000988  63.4727 296.6364 15.06405236118248","RA_OF_ASC_NODE":"199.2602","SEMIMAJOR_AXIS":"6925.333","OBJECT_NAME":"STARLINK-2543","REV_AT_EPOCH":"11824","RCS_SIZE":"LARGE","EPHEMERIS_TYPE":"0","LAUNCH_DATE":"2021-04-29","BSTAR":"0.00017462000000","COUNTRY_CODE":"US","DECAY_DATE":null,"APOAPSIS":"547.882","NORAD_CAT_ID":"48278","EPOCH":"2023-06-12T22:27:14.965632","MEAN_ELEMENT_THEORY":"SGP4","OBJECT_ID":"2021-036C","MEAN_MOTION_DDOT":"0.0000000000000","INCLINATION":"53.0525","OBJECT_TYPE":"PAYLOAD","ELEMENT_SET_NO":"999","GP_ID":"233800660","PERIOD":"95.592","TLE_LINE1":"1 48278U 21036C   23163.93558988  .00002321  00000-0  17462-3 0  9992","SITE":"AFETR","CLASSIFICATION_TYPE":"U","ECCENTRICITY":"0.00009880","FILE":"3931605","MEAN_MOTION":"15.06405236","TIME_SYSTEM":"UTC","REF_FRAME":"TEME"},{"GP_ID":"233798914","ELEMENT_SET_NO":"999","OBJECT_TYPE":"PAYLOAD","INCLINATION":"53.0534","MEAN_MOTION_DDOT":"0.0000000000000","OBJECT_ID":"2021-036D","MEAN_ELEMENT_THEORY":"SGP4","EPOCH":"2023-06-12T19:05:32.611776","REF_FRAME":"TEME","TIME_SYSTEM":"UTC","MEAN_MOTION":"15.06404189","FILE":"3931605","ECCENTRICITY":"0.00009580","CLASSIFICATION_TYPE":"U","SITE":"AFETR","TLE_LINE1":"1 48279U 21036D   23163.79551634  .00003455  00000-0  25071-3 0  9992","PERIOD":"95.592","RA_OF_ASC_NODE":"199.8078","TLE_LINE2":"2 48279  53.0534 199.8078 0000958  64.1442 295.9645 15.06404189118229","MEAN_ANOMALY":"295.9645","ARG_OF_PERICENTER":"64.1442","MEAN_MOTION_DOT":"0.00003455","CENTER_NAME":"EARTH","PERIAPSIS":"546.537","NORAD_CAT_ID":"48279","APOAPSIS":"547.864","DECAY_DATE":null,"COUNTRY_CODE":"US","BSTAR":"0.00025071000000","LAUNCH_DATE":"2021-04-29","EPHEMERIS_TYPE":"0","RCS_SIZE":"LARGE","OBJECT_NAME":"STARLINK-2580","REV_AT_EPOCH":"11822","SEMIMAJOR_AXIS":"6925.336"},{"REF_FRAME":"TEME","TIME_SYSTEM":"UTC","MEAN_MOTION":"15.06402444","FILE":"3931605","ECCENTRICITY":"0.00011850","CLASSIFICATION_TYPE":"U","SITE":"AFETR","PERIOD":"95.592","TLE_LINE1":"1 48280U 21036E   23163.45733719  .00020069  00000-0  13623-2 0  9992","GP_ID":"233799164","ELEMENT_SET_NO":"999","OBJECT_TYPE":"PAYLOAD","INCLINATION":"53.0539","MEAN_MOTION_DDOT":"0.0000000000000","OBJECT_ID":"2021-036E","MEAN_ELEMENT_THEORY":"SGP4","EPOCH":"2023-06-12T10:58:33.933216","NORAD_CAT_ID":"48280","APOAPSIS":"548.027","DECAY_DATE":null,"COUNTRY_CODE":"US","BSTAR":"0.00136230000000","EPHEMERIS_TYPE":"0","LAUNCH_DATE":"2021-04-29","RCS_SIZE":"LARGE","REV_AT_EPOCH":"11719","OBJECT_NAME":"STARLINK-2565","SEMIMAJOR_AXIS":"6925.341","RA_OF_ASC_NODE":"271.3231","TLE_LINE2":"2 48280  53.0539 271.3231 0001185  46.7448 313.3640 15.06402444117195","MEAN_ANOMALY":"313.3640","ARG_OF_PERICENTER":"46.7448","MEAN_MOTION_DOT":"0.00020069","CENTER_NAME":"EARTH","PERIAPSIS":"546.385"},{"COUNTRY_CODE":"US","DECAY_DATE":null,"APOAPSIS":"547.690","NORAD_CAT_ID":"48281","RCS_SIZE":"LARGE","LAUNCH_DATE":"2021-04-29","EPHEMERIS_TYPE":"0","BSTAR":"0.00194410000000","SEMIMAJOR_AXIS":"6925.327","REV_AT_EPOCH":"11754","OBJECT_NAME":"STARLINK-2520","MEAN_ANOMALY":"293.2789","TLE_LINE2":"2 48281  53.0534 249.1807 0000719  66.8276 293.2789 15.06406983117548","RA_OF_ASC_NODE":"249.1807","ARG_OF_PERICENTER":"66.8276","MEAN_MOTION_DOT":"0.00028800","PERIAPSIS":"546.694","CENTER_NAME":"EARTH","TIME_SYSTEM":"UTC","REF_FRAME":"TEME","MEAN_MOTION":"15.06406983","SITE":"AFETR","CLASSIFICATION_TYPE":"U","ECCENTRICITY":"0.00007190","FILE":"3931605","TLE_LINE1":"1 48281U 21036F   23163.93466437  .00028800  00000-0  19441-2 0  9991","PERIOD":"95.592","GP_ID":"233799916","ELEMENT_SET_NO":"999","OBJECT_TYPE":"PAYLOAD","EPOCH":"2023-06-12T22:25:55.001568","MEAN_ELEMENT_THEORY":"SGP4","MEAN_MOTION_DDOT":"0.0000000000000","OBJECT_ID":"2021-036F","INCLINATION":"53.0534"},{"NORAD_CAT_ID":"48282","COUNTRY_CODE":"US","APOAPSIS":"548.513","DECAY_DATE":null,"BSTAR":"0.00049465000000","RCS_SIZE":"LARGE","LAUNCH_DATE":"2021-04-29","EPHEMERIS_TYPE":"0","OBJECT_NAME":"STARLINK-2558","REV_AT_EPOCH":"11800","SEMIMAJOR_AXIS":"6925.334","TLE_LINE2":"2 48282  53.0530 255.8638 0001898  73.6660 286.4538 15.06404756118007","RA_OF_ASC_NODE":"255.8638","MEAN_ANOMALY":"286.4538","ARG_OF_PERICENTER":"73.6660","MEAN_MOTION_DOT":"0.00007095","CENTER_NAME":"EARTH","PERIAPSIS":"545.885","REF_FRAME":"TEME","TIME_SYSTEM":"UTC","MEAN_MOTION":"15.06404756","CLASSIFICATION_TYPE":"U","FILE":"3931303","ECCENTRICITY":"0.00018980","SITE":"AFETR","PERIOD":"95.592","TLE_LINE1":"1 48282U 21036G   23163.56008081  .00007095  00000-0  49465-3 0  9991","GP_ID":"233770957","ELEMENT_SET_NO":"999","OBJECT_TYPE":"PAYLOAD","MEAN_MOTION_DDOT":"0.0000000000000","OBJECT_ID":"2021-036G","INCLINATION":"53.0530","EPOCH":"2023-06-12T13:26:30.981984","MEAN_ELEMENT_THEORY":"SGP4"},{"NORAD_CAT_ID":"48283","DECAY_DATE":null,"APOAPSIS":"548.130","COUNTRY_CODE":"US","BSTAR":"0.00099533000000","LAUNCH_DATE":"2021-04-29","EPHEMERIS_TYPE":"0","RCS_SIZE":"LARGE","OBJECT_NAME":"STARLINK-2516","REV_AT_EPOCH":"11742","SEMIMAJOR_AXIS":"6925.362","RA_OF_ASC_NODE":"255.8833","TLE_LINE2":"2 48283  53.0542 255.8833 0001304  82.2034 277.9103 15.06395541117420","MEAN_ANOMALY":"277.9103","ARG_OF_PERICENTER":"82.2034","MEAN_MOTION_DOT":"0.00014573","CENTER_NAME":"EARTH","PERIAPSIS":"546.324","REF_FRAME":"TEME","TIME_SYSTEM":"UTC","MEAN_MOTION":"15.06395541","FILE":"3931287","ECCENTRICITY":"0.00013040","CLASSIFICATION_TYPE":"U","SITE":"AFETR","TLE_LINE1":"1 48283U 21036H   23163.55639605  .00014573  00000-0  99533-3 0  9993","PERIOD":"95.592","GP_ID":"233765114","ELEMENT_SET_NO":"999","OBJECT_TYPE":"PAYLOAD","INCLINATION":"53.0542","OBJECT_ID":"2021-036H","MEAN_MOTION_DDOT":"0.0000000000000","MEAN_ELEMENT_THEORY":"SGP4","EPOCH":"2023-06-12T13:21:12.618720"},{"REV_AT_EPOCH":"11799","OBJECT_NAME":"STARLINK-2564","SEMIMAJOR_AXIS":"6925.411","BSTAR":"0.00127160000000","RCS_SIZE":"LARGE","EPHEMERIS_TYPE":"0","LAUNCH_DATE":"2021-04-29","NORAD_CAT_ID":"48284","COUNTRY_CODE":"US","APOAPSIS":"547.810","DECAY_DATE":null,"CENTER_NAME":"EARTH","PERIAPSIS":"546.742","MEAN_MOTION_DOT":"0.00018699","ARG_OF_PERICENTER":"47.7463","TLE_LINE2":"2 48284  53.0532 255.8944 0000771  47.7463 312.3591 15.06379693117999","RA_OF_ASC_NODE":"255.8944","MEAN_ANOMALY":"312.3591","PERIOD":"95.593","TLE_LINE1":"1 48284U 21036J   23163.55271355  .00018699  00000-0  12716-2 0  9998","CLASSIFICATION_TYPE":"U","ECCENTRICITY":"0.00007710","FILE":"3931568","SITE":"AFETR","MEAN_MOTION":"15.06379693","REF_FRAME":"TEME","TIME_SYSTEM":"UTC","OBJECT_ID":"2021-036J","MEAN_MOTION_DDOT":"0.0000000000000","INCLINATION":"53.0532","EPOCH":"2023-06-12T13:15:54.450720","MEAN_ELEMENT_THEORY":"SGP4","OBJECT_TYPE":"PAYLOAD","ELEMENT_SET_NO":"999","GP_ID":"233777980"}];
